CCSDS_OMM_VERS = 2.0
CREATION_DATE  = 
ORIGINATOR     = 

OBJECT_NAME    = STARLINK-35658
OBJECT_ID      = 2025-237N
CENTER_NAME    = EARTH
REF_FRAME      = TEME
TIME_SYSTEM    = UTC
MEAN_ELEMENT_THEORY = SGP/SGP4

EPOCH          = 2025-11-20T17:21:23.757696
MEAN_MOTION    = 15.49336653
ECCENTRICITY   = .0001081
INCLINATION    = 53.1587
RA_OF_ASC_NODE = 190.9820
ARG_OF_PERICENTER = 97.6404
MEAN_ANOMALY   = 262.4728

EPHEMERIS_TYPE = 0
CLASSIFICATION_TYPE = U
NORAD_CAT_ID   = 66126
ELEMENT_SET_NO = 999
REV_AT_EPOCH   = 585
BSTAR          = .11879E-2
MEAN_MOTION_DOT = .66246E-3
MEAN_MOTION_DDOT = 0

CCSDS_OMM_VERS = 2.0
CREATION_DATE  = 
ORIGINATOR     = 

OBJECT_NAME    = STARLINK-35629
OBJECT_ID      = 2025-237P
CENTER_NAME    = EARTH
REF_FRAME      = TEME
TIME_SYSTEM    = UTC
MEAN_ELEMENT_THEORY = SGP/SGP4

EPOCH          = 2025-11-20T08:03:33.431040
MEAN_MOTION    = 15.49333762
ECCENTRICITY   = .0001974
INCLINATION    = 53.1592
RA_OF_ASC_NODE = 192.8309
ARG_OF_PERICENTER = 75.0969
MEAN_ANOMALY   = 285.0259

EPHEMERIS_TYPE = 0
CLASSIFICATION_TYPE = U
NORAD_CAT_ID   = 66127
ELEMENT_SET_NO = 999
REV_AT_EPOCH   = 579
BSTAR          = .12145E-2
MEAN_MOTION_DOT = .67746E-3
MEAN_MOTION_DDOT = 0

CCSDS_OMM_VERS = 2.0
CREATION_DATE  = 
ORIGINATOR     = 

OBJECT_NAME    = STARLINK-35612
OBJECT_ID      = 2025-237Q
CENTER_NAME    = EARTH
REF_FRAME      = TEME
TIME_SYSTEM    = UTC
MEAN_ELEMENT_THEORY = SGP/SGP4

EPOCH          = 2025-11-19T21:57:11.609280
MEAN_MOTION    = 15.39627368
ECCENTRICITY   = .00012205
INCLINATION    = 53.1595
RA_OF_ASC_NODE = 195.1803
ARG_OF_PERICENTER = 92.9555
MEAN_ANOMALY   = 267.1589

EPHEMERIS_TYPE = 0
CLASSIFICATION_TYPE = U
NORAD_CAT_ID   = 66128
ELEMENT_SET_NO = 999
REV_AT_EPOCH   = 572
BSTAR          = .89720006E-3
MEAN_MOTION_DOT = .35664E-3
MEAN_MOTION_DDOT = 0

CCSDS_OMM_VERS = 2.0
CREATION_DATE  = 
ORIGINATOR     = 

OBJECT_NAME    = STARLINK-35632
OBJECT_ID      = 2025-237R
CENTER_NAME    = EARTH
REF_FRAME      = TEME
TIME_SYSTEM    = UTC
MEAN_ELEMENT_THEORY = SGP/SGP4

EPOCH          = 2025-11-20T14:58:45.308064
MEAN_MOTION    = 15.39642737
ECCENTRICITY   = .000182
INCLINATION    = 53.1609
RA_OF_ASC_NODE = 191.7858
ARG_OF_PERICENTER = 89.1129
MEAN_ANOMALY   = 271.0084

EPHEMERIS_TYPE = 0
CLASSIFICATION_TYPE = U
NORAD_CAT_ID   = 66129
ELEMENT_SET_NO = 999
REV_AT_EPOCH   = 583
BSTAR          = .84369E-3
MEAN_MOTION_DOT = .33521E-3
MEAN_MOTION_DDOT = 0

CCSDS_OMM_VERS = 2.0
CREATION_DATE  = 
ORIGINATOR     = 

OBJECT_NAME    = STARLINK-35637
OBJECT_ID      = 2025-237S
CENTER_NAME    = EARTH
REF_FRAME      = TEME
TIME_SYSTEM    = UTC
MEAN_ELEMENT_THEORY = SGP/SGP4

EPOCH          = 2025-11-20T20:00:03.000384
MEAN_MOTION    = 15.39619754
ECCENTRICITY   = .0001031
INCLINATION    = 53.1593
RA_OF_ASC_NODE = 190.7495
ARG_OF_PERICENTER = 89.0927
MEAN_ANOMALY   = 17.1230

EPHEMERIS_TYPE = 0
CLASSIFICATION_TYPE = U
NORAD_CAT_ID   = 66130
ELEMENT_SET_NO = 999
REV_AT_EPOCH   = 595
BSTAR          = -.13986E-3
MEAN_MOTION_DOT = -.5989E-4
MEAN_MOTION_DDOT = 0

CCSDS_OMM_VERS = 2.0
CREATION_DATE  = 
ORIGINATOR     = 

OBJECT_NAME    = STARLINK-35630
OBJECT_ID      = 2025-237T
CENTER_NAME    = EARTH
REF_FRAME      = TEME
TIME_SYSTEM    = UTC
MEAN_ELEMENT_THEORY = SGP/SGP4

EPOCH          = 2025-11-20T20:00:03.000384
MEAN_MOTION    = 15.39621705
ECCENTRICITY   = .0000859
INCLINATION    = 53.1591
RA_OF_ASC_NODE = 190.6988
ARG_OF_PERICENTER = 96.1039
MEAN_ANOMALY   = 35.8562

EPHEMERIS_TYPE = 0
CLASSIFICATION_TYPE = U
NORAD_CAT_ID   = 66131
ELEMENT_SET_NO = 999
REV_AT_EPOCH   = 595
BSTAR          = -.1041E-3
MEAN_MOTION_DOT = -.456E-4
MEAN_MOTION_DDOT = 0

CCSDS_OMM_VERS = 2.0
CREATION_DATE  = 
ORIGINATOR     = 

OBJECT_NAME    = STARLINK-34412
OBJECT_ID      = 2025-237U
CENTER_NAME    = EARTH
REF_FRAME      = TEME
TIME_SYSTEM    = UTC
MEAN_ELEMENT_THEORY = SGP/SGP4

EPOCH          = 2025-11-20T20:00:03.000384
MEAN_MOTION    = 15.39613085
ECCENTRICITY   = .000121
INCLINATION    = 53.1587
RA_OF_ASC_NODE = 190.6476
ARG_OF_PERICENTER = 92.6898
MEAN_ANOMALY   = 65.0374

EPHEMERIS_TYPE = 0
CLASSIFICATION_TYPE = U
NORAD_CAT_ID   = 66132
ELEMENT_SET_NO = 999
REV_AT_EPOCH   = 586
BSTAR          = .16326E-4
MEAN_MOTION_DOT = .254E-5
MEAN_MOTION_DDOT = 0

CCSDS_OMM_VERS = 2.0
CREATION_DATE  = 
ORIGINATOR     = 

OBJECT_NAME    = STARLINK-35520
OBJECT_ID      = 2025-237V
CENTER_NAME    = EARTH
REF_FRAME      = TEME
TIME_SYSTEM    = UTC
MEAN_ELEMENT_THEORY = SGP/SGP4

EPOCH          = 2025-11-20T20:00:03.000384
MEAN_MOTION    = 15.39631222
ECCENTRICITY   = .0000842
INCLINATION    = 53.1585
RA_OF_ASC_NODE = 190.5960
ARG_OF_PERICENTER = 128.2949
MEAN_ANOMALY   = 55.1385

EPHEMERIS_TYPE = 0
CLASSIFICATION_TYPE = U
NORAD_CAT_ID   = 66133
ELEMENT_SET_NO = 999
REV_AT_EPOCH   = 595
BSTAR          = .1918E-4
MEAN_MOTION_DOT = .368E-5
MEAN_MOTION_DDOT = 0

CCSDS_OMM_VERS = 2.0
CREATION_DATE  = 
ORIGINATOR     = 

OBJECT_NAME    = STARLINK-35525
OBJECT_ID      = 2025-237W
CENTER_NAME    = EARTH
REF_FRAME      = TEME
TIME_SYSTEM    = UTC
MEAN_ELEMENT_THEORY = SGP/SGP4

EPOCH          = 2025-11-20T20:00:03.000384
MEAN_MOTION    = 15.39613595
ECCENTRICITY   = .0000957
INCLINATION    = 53.1585
RA_OF_ASC_NODE = 190.5462
ARG_OF_PERICENTER = 96.3197
MEAN_ANOMALY   = 112.9071

EPHEMERIS_TYPE = 0
CLASSIFICATION_TYPE = U
NORAD_CAT_ID   = 66134
ELEMENT_SET_NO = 999
REV_AT_EPOCH   = 595
BSTAR          = .82478E-4
MEAN_MOTION_DOT = .29E-4
MEAN_MOTION_DDOT = 0

CCSDS_OMM_VERS = 2.0
CREATION_DATE  = 
ORIGINATOR     = 

OBJECT_NAME    = STARLINK-34852
OBJECT_ID      = 2025-237X
CENTER_NAME    = EARTH
REF_FRAME      = TEME
TIME_SYSTEM    = UTC
MEAN_ELEMENT_THEORY = SGP/SGP4

EPOCH          = 2025-11-20T20:00:03.000384
MEAN_MOTION    = 15.39589680
ECCENTRICITY   = .0001335
INCLINATION    = 53.1591
RA_OF_ASC_NODE = 190.4923
ARG_OF_PERICENTER = 97.5593
MEAN_ANOMALY   = 137.4549

EPHEMERIS_TYPE = 0
CLASSIFICATION_TYPE = U
NORAD_CAT_ID   = 66135
ELEMENT_SET_NO = 999
REV_AT_EPOCH   = 591
BSTAR          = .43906E-3
MEAN_MOTION_DOT = .17184E-3
MEAN_MOTION_DDOT = 0

CCSDS_OMM_VERS = 2.0
CREATION_DATE  = 
ORIGINATOR     = 

OBJECT_NAME    = STARLINK-35592
OBJECT_ID      = 2025-237Y
CENTER_NAME    = EARTH
REF_FRAME      = TEME
TIME_SYSTEM    = UTC
MEAN_ELEMENT_THEORY = SGP/SGP4

EPOCH          = 2025-11-19T22:41:45.062880
MEAN_MOTION    = 15.49363715
ECCENTRICITY   = .00015758
INCLINATION    = 53.1601
RA_OF_ASC_NODE = 194.6589
ARG_OF_PERICENTER = 102.6642
MEAN_ANOMALY   = 257.4543

EPHEMERIS_TYPE = 0
CLASSIFICATION_TYPE = U
NORAD_CAT_ID   = 66136
ELEMENT_SET_NO = 999
REV_AT_EPOCH   = 573
BSTAR          = .14915056E-2
MEAN_MOTION_DOT = .83557E-3
MEAN_MOTION_DDOT = 0

CCSDS_OMM_VERS = 2.0
CREATION_DATE  = 
ORIGINATOR     = 

OBJECT_NAME    = STARLINK-35576
OBJECT_ID      = 2025-237Z
CENTER_NAME    = EARTH
REF_FRAME      = TEME
TIME_SYSTEM    = UTC
MEAN_ELEMENT_THEORY = SGP/SGP4

EPOCH          = 2025-11-19T22:41:15.384480
MEAN_MOTION    = 15.49360360
ECCENTRICITY   = .00014985
INCLINATION    = 53.1594
RA_OF_ASC_NODE = 194.6559
ARG_OF_PERICENTER = 101.5341
MEAN_ANOMALY   = 258.5836

EPHEMERIS_TYPE = 0
CLASSIFICATION_TYPE = U
NORAD_CAT_ID   = 66137
ELEMENT_SET_NO = 999
REV_AT_EPOCH   = 573
BSTAR          = .14571801E-2
MEAN_MOTION_DOT = .81593E-3
MEAN_MOTION_DDOT = 0

