STARLINK-35658          
1 66126U 25237N   25324.72319164  .00066246  00000+0  11879-2 0  9990
2 66126  53.1587 190.9820 0001081  97.6404 262.4728 15.49336653  5855
STARLINK-35629          
1 66127U 25237P   25324.33580360  .00067746  00000+0  12145-2 0  9999
2 66127  53.1592 192.8309 0001974  75.0969 285.0259 15.49333762  5793
STARLINK-35612          
1 66128U 25237Q   25323.91471770  .00035664  00000+0  89720-3 0  9995
2 66128  53.1595 195.1803 0001220  92.9555 267.1589 15.39627368  5722
STARLINK-35632          
1 66129U 25237R   25324.62413551  .00033521  00000+0  84369-3 0  9992
2 66129  53.1609 191.7858 0001820  89.1129 271.0084 15.39642737  5835
STARLINK-35637          
1 66130U 25237S   25324.83336806 -.00005989  00000+0 -13986-3 0  9990
2 66130  53.1593 190.7495 0001031  89.0927  17.1230 15.39619754  5952
STARLINK-35630          
1 66131U 25237T   25324.83336806 -.00004560  00000+0 -10410-3 0  9994
2 66131  53.1591 190.6988 0000859  96.1039  35.8562 15.39621705  5951
STARLINK-34412          
1 66132U 25237U   25324.83336806  .00000254  00000+0  16326-4 0  9992
2 66132  53.1587 190.6476 0001210  92.6898  65.0374 15.39613085  5863
STARLINK-35520          
1 66133U 25237V   25324.83336806  .00000368  00000+0  19180-4 0  9990
2 66133  53.1585 190.5960 0000842 128.2949  55.1385 15.39631222  5957
STARLINK-35525          
1 66134U 25237W   25324.83336806  .00002900  00000+0  82478-4 0  9995
2 66134  53.1585 190.5462 0000957  96.3197 112.9071 15.39613595  5959
STARLINK-34852          
1 66135U 25237X   25324.83336806  .00017184  00000+0  43906-3 0  9998
2 66135  53.1591 190.4923 0001335  97.5593 137.4549 15.39589680  5917
STARLINK-35592          
1 66136U 25237Y   25323.94566045  .00083557  00000+0  14915-2 0  9994
2 66136  53.1601 194.6589 0001575 102.6642 257.4543 15.49363715  5730
STARLINK-35576          
1 66137U 25237Z   25323.94531695  .00081593  00000+0  14572-2 0  9995
2 66137  53.1594 194.6559 0001498 101.5341 258.5836 15.49360360  5737
